YAOGAN-43 01D           
1 60461U 24148D   26068.43560480  .00010676  00000+0  37766-3 0  9999
2 60461  35.0010  61.7102 0002556 326.2473  33.8080 15.28369377 87008
STARLINK-32931          
1 63199U 25048S   26068.43614663  .00020011  00000+0  73489-3 0  9999
2 63199  43.0008  86.7283 0001047 248.1574 111.9166 15.27572240 57059
